#aV2022 10 20  0  0  0.00000000     288 DD+AD WGS84 FIT  NGA
## 2232 345600.00000000   300.00000000 59872 0.0000000000000
+   32     1  2  3  4  5  6  7  8  9 10 11 12 13 14 15 16 17
+         18 19 20 21 22 23 24 25 26 27 28 29 30 31 32  0  0
+          0  0  0  0  0  0  0  0  0  0  0  0  0  0  0  0  0
+          0  0  0  0  0  0  0  0  0  0  0  0  0  0  0  0  0
+          0  0  0  0  0  0  0  0  0  0  0  0  0  0  0  0  0
++         2  2  2  2  2  2  2  2  2  2  2  2  2  2  2  2  2
++         2  2  2  2  2  2  2  2  2  2  2  2  2  2  2  0  0
++         0  0  0  0  0  0  0  0  0  0  0  0  0  0  0  0  0
++         0  0  0  0  0  0  0  0  0  0  0  0  0  0  0  0  0
++         0  0  0  0  0  0  0  0  0  0  0  0  0  0  0  0  0
%c cc cc ccc ccc cccc cccc cccc cccc ccccc ccccc ccccc ccccc
%c cc cc ccc ccc cccc cccc cccc cccc ccccc ccccc ccccc ccccc
%f  0.0000000  0.000000000  0.00000000000  0.000000000000000
%f  0.0000000  0.000000000  0.00000000000  0.000000000000000
%i    0    0    0    0      0      0      0      0         0
%i    0    0    0    0      0      0      0      0         0
/*      NGA, ST. LOUIS,MO.                                  
/*   EPHEMERIS COMPUTED FROM 2 DAYS OF DATA                 
/*   EPOCHA v8 SMOOTHER                                     
/*   G2139 IERS2010 SATIGS SATAPC                           
*  2022 10 20  1  0  0.00000000
P  1    818.928339 -15505.869833 -21803.545747    264.821158                    
V  1  25566.616094  -8500.188225   7435.077107     -0.060173                    
P  2  -1901.009511  16922.069123  21081.185457   -641.633135                    
V  2 -23159.095112  10055.660720 -10311.224138      0.016132                    
P  3  -6852.353374 -19983.426134 -16290.559598   -366.185652                    
V  3  16644.661553  11845.666644 -21592.733473     -0.037240                    
P  4    158.818813 -25533.617805   7124.622136   -100.783345                    
V  4   4484.832585  -8337.938494 -30086.598618      0.062225                    
P  5  -4892.021940  14863.845336  21268.237119   -101.048633                    
V  5 -22249.198465 -16061.927885   6176.456687     -0.014472                    
P  6 -25477.493882   6087.815175  -4558.412322    496.016010                    
V  6   4856.732971  -3733.769556 -31615.825913      0.106343                    
P  7 -15504.317152  -9469.738220  19951.031125    296.959170                    
V  7  22490.832609  -9280.683924  12870.138687     -0.039294                    
P  8   6013.972897 -25450.394663   3285.715974    -89.688647                    
V  8   2436.473522   4664.641389  31642.642016     -0.018721                    
P  9  -8754.228990 -19066.744305  16183.910964   -280.830834                    
V  9   5064.517871 -20205.856871 -21002.912440      0.052796                    
P 10  22644.479682   9708.506591 -10168.164856     -8.238490                    
V 10   8847.853555   9728.490647  28258.682639     -0.016236                    
P 11 -22569.470050  12113.311608   6954.057019    -27.938249                    
V 11  -9204.584244    156.294140 -30195.749537     -0.046510                    
P 12   4956.894653  20459.846702 -16524.751487   -294.267390                    
V 12 -15873.990926 -12951.353193 -21038.934481     -0.044553                    
P 13 -13138.360702  21026.170540   9091.289383    409.214945                    
V 13   1144.645441 -12043.868754  29141.679186      0.070282                    
P 14 -22339.308748 -11618.497528  -8620.071419    -93.236549                    
V 14  -6325.300446  -9350.953640  28854.758474      0.040876                    
P 15  -2802.542280  26080.230205   2551.992386    -19.479629                    
V 15  -3893.627407  -3948.371087  31039.299655      0.031694                    
P 16  11744.686287  -9366.534329  21643.520783   -526.421950                    
V 16  19999.186176  19754.140749  -1826.949025     -0.004329                    
P 17 -13687.264572  -5578.919739 -21624.183777    670.340606                    
V 17   6740.458623 -27669.977363   2879.218332      0.035616                    
P 18  16511.365326   8084.124475  19219.183954      8.613987                    
V 18 -22594.405903   9086.576528  15448.864892     -0.134734                    
P 19 -16058.519713   5879.197351 -20487.749623    226.094966                    
V 19   5996.863260 -24820.131424 -12209.914252      0.050738                    
P 20 -16925.107973   6342.398248  19398.536004    476.983597                    
V 20 -20571.668817 -13817.675227 -13665.051022     -0.030861                    
P 21   9559.935976 -17360.121323 -16693.729212    157.716579                    
V 21  21540.608875  -7480.304907  20147.001638     -0.006972                    
P 22  15832.642678  -9451.689278 -18632.297596    348.856598                    
V 22  -4548.285384  24228.095013 -15973.820785      0.069924                    
P 23  21071.673720  16288.034686   -164.897500     -1.072407                    
V 23  -1321.077577   2014.785555  31879.015336     -0.001461                    
P 24  -4107.845159  17810.471092 -19459.014133     93.199014                    
V 24 -22665.492751   8762.863480  13449.395142     -0.147413                    
P 25  15640.551025  20151.680452  -8180.650281    384.137405                    
V 25  -9283.775671  -4310.676794 -29152.291626      0.038854                    
P 26  19570.575661  -2036.771589  17893.818611    233.066815                    
V 26  17405.994975  14940.899060 -16923.800688      0.013398                    
P 27  12492.777422 -18789.825744  13466.354224    195.022874                    
V 27   -618.503451  17742.405731  25316.435038     -0.067181                    
P 28 -20261.446262  -4725.057342 -15861.877978    326.747707                    
V 28 -13512.484342 -16422.110710  21721.448431     -0.051760                    
P 29   5758.698473  20564.339643  15695.370360   -560.952254                    
V 29  -6407.917354  19018.176075 -22584.336107     -0.029618                    
P 30 -23628.270352  -1266.378511  12405.655985   -537.187897                    
V 30  13749.314642  -7800.954895  25324.735026      0.000876                    
P 31  25838.454904  -6336.745391  -3478.170034   -197.372404                    
V 31  -3114.580241   3782.375550 -30926.438640     -0.012861                    
P 32  15072.451386   1941.715475 -21631.120064   -268.813810                    
V 32  -4275.061444  27504.244470   -699.322226     -0.120301                    
EOF
